[
    {
        "Altitude(m)": 553719.6472781644,
        "Argument of Periapsis(deg)": 0.013245982221427002,
        "Eccentricity": 0.0,
        "Inclination(deg)": 53.0,
        "Latitude(deg)": 18.86230694221349,
        "Longitude(deg)": -76.74161192202318,
        "Mean Anomaly(deg)": 23.819585735155176,
        "RAAN(deg)": 9.980286737056034,
        "Satellite Name": "Starlink Shell 1 44",
        "Satellite Number": 44,
        "Semi-Major Axis(m)": 6931778.249405717,
        "Time(s)": 380
    },
    {
        "Altitude(m)": 553755.04441297,
        "Argument of Periapsis(deg)": 0.013594560700938237,
        "Eccentricity": 0.0,
        "Inclination(deg)": 53.0,
        "Latitude(deg)": 19.3486484491751,
        "Longitude(deg)": -76.36120523599683,
        "Mean Anomaly(deg)": 24.446416938711884,
        "RAAN(deg)": 9.97976796697856,
        "Satellite Name": "Starlink Shell 1 44",
        "Satellite Number": 44,
        "Semi-Major Axis(m)": 6931778.249405717,
        "Time(s)": 390
    },
    {
        "Altitude(m)": 553792.5784188472,
        "Argument of Periapsis(deg)": 0.013943139180449475,
        "Eccentricity": 0.0,
        "Inclination(deg)": 53.0,
        "Latitude(deg)": 19.83398476793412,
        "Longitude(deg)": -75.97829533577924,
        "Mean Anomaly(deg)": 25.073248142268604,
        "RAAN(deg)": 9.979249196901089,
        "Satellite Name": "Starlink Shell 1 44",
        "Satellite Number": 44,
        "Semi-Major Axis(m)": 6931778.249405717,
        "Time(s)": 400
    },
    {
        "Altitude(m)": 553832.2096619634,
        "Argument of Periapsis(deg)": 0.014291717659960712,
        "Eccentricity": 0.0,
        "Inclination(deg)": 53.0,
        "Latitude(deg)": 20.318282645391953,
        "Longitude(deg)": -75.59280391130923,
        "Mean Anomaly(deg)": 25.70007934582532,
        "RAAN(deg)": 9.978730426823613,
        "Satellite Name": "Starlink Shell 1 44",
        "Satellite Number": 44,
        "Semi-Major Axis(m)": 6931778.249405717,
        "Time(s)": 410
    },
    {
        "Altitude(m)": 553873.8976092151,
        "Argument of Periapsis(deg)": 0.014640296139471948,
        "Eccentricity": 0.0,
        "Inclination(deg)": 53.0,
        "Latitude(deg)": 20.801508234865235,
        "Longitude(deg)": -75.20465210978237,
        "Mean Anomaly(deg)": 26.326910549382028,
        "RAAN(deg)": 9.978211656746142,
        "Satellite Name": "Starlink Shell 1 44",
        "Satellite Number": 44,
        "Semi-Major Axis(m)": 6931778.249405717,
        "Time(s)": 420
    },
    {
        "Altitude(m)": 553917.6008507985,
        "Argument of Periapsis(deg)": 0.014988874618983185,
        "Eccentricity": 0.0,
        "Inclination(deg)": 53.0,
        "Latitude(deg)": 21.2836270747243,
        "Longitude(deg)": -74.81376000674271,
        "Mean Anomaly(deg)": 26.953741752938747,
        "RAAN(deg)": 9.97769288666867,
        "Satellite Name": "Starlink Shell 1 44",
        "Satellite Number": 44,
        "Semi-Major Axis(m)": 6931778.249405717,
        "Time(s)": 430
    },
    {
        "Altitude(m)": 553963.2771231813,
        "Argument of Periapsis(deg)": 0.015337453098494424,
        "Eccentricity": 0.0,
        "Inclination(deg)": 53.0,
        "Latitude(deg)": 21.764604066547253,
        "Longitude(deg)": -74.42004607770401,
        "Mean Anomaly(deg)": 27.580572956495466,
        "RAAN(deg)": 9.977174116591197,
        "Satellite Name": "Starlink Shell 1 44",
        "Satellite Number": 44,
        "Semi-Major Axis(m)": 6931778.249405717,
        "Time(s)": 440
    },
    {
        "Altitude(m)": 554010.8833324724,
        "Argument of Periapsis(deg)": 0.01568603157800566,
        "Eccentricity": 0.0,
        "Inclination(deg)": 53.0,
        "Latitude(deg)": 22.244403452780137,
        "Longitude(deg)": -74.02342818324767,
        "Mean Anomaly(deg)": 28.20740416005218,
        "RAAN(deg)": 9.976655346513724,
        "Satellite Name": "Starlink Shell 1 44",
        "Satellite Number": 44,
        "Semi-Major Axis(m)": 6931778.249405717,
        "Time(s)": 450
    },
    {
        "Altitude(m)": 554060.3755781798,
        "Argument of Periapsis(deg)": 0.0160346100575169,
        "Eccentricity": 0.0,
        "Inclination(deg)": 53.0,
        "Latitude(deg)": 22.72298879389581,
        "Longitude(deg)": -73.62382304193598,
        "Mean Anomaly(deg)": 28.83423536360889,
        "RAAN(deg)": 9.97613657643625,
        "Satellite Name": "Starlink Shell 1 44",
        "Satellite Number": 44,
        "Semi-Major Axis(m)": 6931778.249405717,
        "Time(s)": 460
    },
    {
        "Altitude(m)": 554111.7091773215,
        "Argument of Periapsis(deg)": 0.016383188537028134,
        "Eccentricity": 0.0,
        "Inclination(deg)": 53.0,
        "Latitude(deg)": 23.200322945043375,
        "Longitude(deg)": -73.22114570400201,
        "Mean Anomaly(deg)": 29.46106656716561,
        "RAAN(deg)": 9.975617806358779,
        "Satellite Name": "Starlink Shell 1 44",
        "Satellite Number": 44,
        "Semi-Major Axis(m)": 6931778.249405717,
        "Time(s)": 470
    },
    {
        "Altitude(m)": 554164.838688909,
        "Argument of Periapsis(deg)": 0.01673176701653937,
        "Eccentricity": 0.0,
        "Inclination(deg)": 53.0,
        "Latitude(deg)": 23.67636803218107,
        "Longitude(deg)": -72.81531053878592,
        "Mean Anomaly(deg)": 30.08789777072233,
        "RAAN(deg)": 9.975099036281307,
        "Satellite Name": "Starlink Shell 1 44",
        "Satellite Number": 44,
        "Semi-Major Axis(m)": 6931778.249405717,
        "Time(s)": 480
    },
    {
        "Altitude(m)": 554219.717938766,
        "Argument of Periapsis(deg)": 0.017080345496050607,
        "Eccentricity": 0.0,
        "Inclination(deg)": 53.0,
        "Latitude(deg)": 24.151085427688034,
        "Longitude(deg)": -72.40623071027801,
        "Mean Anomaly(deg)": 30.71472897427904,
        "RAAN(deg)": 9.974580266203832,
        "Satellite Name": "Starlink Shell 1 44",
        "Satellite Number": 44,
        "Semi-Major Axis(m)": 6931778.249405717,
        "Time(s)": 490
    },
    {
        "Altitude(m)": 554276.300044673,
        "Argument of Periapsis(deg)": 0.017428923975561842,
        "Eccentricity": 0.0,
        "Inclination(deg)": 53.0,
        "Latitude(deg)": 24.624435725449835,
        "Longitude(deg)": -71.99381765375533,
        "Mean Anomaly(deg)": 31.341560177835753,
        "RAAN(deg)": 9.97406149612636,
        "Satellite Name": "Starlink Shell 1 44",
        "Satellite Number": 44,
        "Semi-Major Axis(m)": 6931778.249405717,
        "Time(s)": 500
    },
    {
        "Altitude(m)": 554334.5374418385,
        "Argument of Periapsis(deg)": 0.01777750245507308,
        "Eccentricity": 0.0,
        "Inclination(deg)": 53.0,
        "Latitude(deg)": 25.09637871541405,
        "Longitude(deg)": -71.57798206650627,
        "Mean Anomaly(deg)": 31.968391381392472,
        "RAAN(deg)": 9.973542726048885,
        "Satellite Name": "Starlink Shell 1 44",
        "Satellite Number": 44,
        "Semi-Major Axis(m)": 6931778.249405717,
        "Time(s)": 510
    },
    {
        "Altitude(m)": 554394.3819086694,
        "Argument of Periapsis(deg)": 0.018126080934584315,
        "Eccentricity": 0.0,
        "Inclination(deg)": 53.0,
        "Latitude(deg)": 25.566873357615098,
        "Longitude(deg)": -71.15863338703231,
        "Mean Anomaly(deg)": 32.59522258494919,
        "RAAN(deg)": 9.973023955971414,
        "Satellite Name": "Starlink Shell 1 44",
        "Satellite Number": 44,
        "Semi-Major Axis(m)": 6931778.249405717,
        "Time(s)": 520
    },
    {
        "Altitude(m)": 554455.7845928152,
        "Argument of Periapsis(deg)": 0.018474659414095554,
        "Eccentricity": 0.0,
        "Inclination(deg)": 53.0,
        "Latitude(deg)": 26.0358777556676,
        "Longitude(deg)": -70.73567927574175,
        "Mean Anomaly(deg)": 33.22205378850591,
        "RAAN(deg)": 9.972505185893942,
        "Satellite Name": "Starlink Shell 1 44",
        "Satellite Number": 44,
        "Semi-Major Axis(m)": 6931778.249405717,
        "Time(s)": 530
    },
    {
        "Altitude(m)": 554518.6960375122,
        "Argument of Periapsis(deg)": 0.018823237893606792,
        "Eccentricity": 0.0,
        "Inclination(deg)": 53.0,
        "Latitude(deg)": 26.503349129729223,
        "Longitude(deg)": -70.30902661016114,
        "Mean Anomaly(deg)": 33.848884992062615,
        "RAAN(deg)": 9.971986415816469,
        "Satellite Name": "Starlink Shell 1 44",
        "Satellite Number": 44,
        "Semi-Major Axis(m)": 6931778.249405717,
        "Time(s)": 540
    },
    {
        "Altitude(m)": 554583.066208176,
        "Argument of Periapsis(deg)": 0.019171816373118027,
        "Eccentricity": 0.0,
        "Inclination(deg)": 53.0,
        "Latitude(deg)": 26.969243788937536,
        "Longitude(deg)": -69.87858096908643,
        "Mean Anomaly(deg)": 34.47571619561933,
        "RAAN(deg)": 9.971467645738995,
        "Satellite Name": "Starlink Shell 1 44",
        "Satellite Number": 44,
        "Semi-Major Axis(m)": 6931778.249405717,
        "Time(s)": 550
    },
    {
        "Altitude(m)": 554648.8445192276,
        "Argument of Periapsis(deg)": 0.019520394852629266,
        "Eccentricity": 0.0,
        "Inclination(deg)": 53.0,
        "Latitude(deg)": 27.43351710332605,
        "Longitude(deg)": -69.4442461187227,
        "Mean Anomaly(deg)": 35.10254739917605,
        "RAAN(deg)": 9.970948875661524,
        "Satellite Name": "Starlink Shell 1 44",
        "Satellite Number": 44,
        "Semi-Major Axis(m)": 6931778.249405717,
        "Time(s)": 560
    }
]